{
    "links": {
        "self": "http://www.neowsapp.com/rest/v1/neo/3314044?api_key=iIulBulltgU6a56xZRHN4H3l9WmuAYTsLGpBGhQ2"
    },
    "id": "3314044",
    "neo_reference_id": "3314044",
    "name": "(2006 BD55)",
    "designation": "2006 BD55",
    "nasa_jpl_url": "http://ssd.jpl.nasa.gov/sbdb.cgi?sstr=3314044",
    "absolute_magnitude_h": 24.5,
    "estimated_diameter": {
        "kilometers": {
            "estimated_diameter_min": 0.0334622374,
            "estimated_diameter_max": 0.0748238376
        },
        "meters": {
            "estimated_diameter_min": 33.4622374455,
            "estimated_diameter_max": 74.8238376074
        },
        "miles": {
            "estimated_diameter_min": 0.0207924639,
            "estimated_diameter_max": 0.0464933628
        },
        "feet": {
            "estimated_diameter_min": 109.7842471007,
            "estimated_diameter_max": 245.4850393757
        }
    },
    "is_potentially_hazardous_asteroid": false,
    "close_approach_data": [
        {
            "close_approach_date": "2005-08-09",
            "close_approach_date_full": "2005-Aug-09 16:00",
            "epoch_date_close_approach": 1123603200000,
            "relative_velocity": {
                "kilometers_per_second": "7.6926756527",
                "kilometers_per_hour": "27693.6323497809",
                "miles_per_hour": "17207.7461675625"
            },
            "miss_distance": {
                "astronomical": "0.3957344441",
                "lunar": "153.9406987549",
                "kilometers": "59201029.922994067",
                "miles": "36785814.2132774446"
            },
            "orbiting_body": "Earth"
        },
        {
            "close_approach_date": "2006-01-08",
            "close_approach_date_full": "2006-Jan-08 03:34",
            "epoch_date_close_approach": 1136691240000,
            "relative_velocity": {
                "kilometers_per_second": "10.7167198163",
                "kilometers_per_hour": "38580.1913386116",
                "miles_per_hour": "23972.230557039"
            },
            "miss_distance": {
                "astronomical": "0.0732874272",
                "lunar": "28.5088091808",
                "kilometers": "10963643.006900064",
                "miles": "6812491.8650423232"
            },
            "orbiting_body": "Earth"
        }
    ],
    "orbital_data": {
        "orbit_id": "7",
        "orbit_determination_date": "2017-04-06 09:09:16",
        "first_observation_date": "2006-01-25",
        "last_observation_date": "2006-02-01",
        "data_arc_in_days": 7,
        "observations_used": 21,
        "orbit_uncertainty": "8",
        "minimum_orbit_intersection": ".0732716",
        "jupiter_tisserand_invariant": "4.670",
        "epoch_osculation": "2453763.5",
        "eccentricity": ".3564065495003332",
        "semi_major_axis": "1.396515378443047",
        "inclination": "12.85061010894155",
        "ascending_node_longitude": "122.1935766764091",
        "orbital_period": "602.7913486769284",
        "perihelion_distance": ".8987881510880088",
        "perihelion_argument": "286.3759592809078",
        "aphelion_distance": "1.894242605798086",
        "perihelion_time": "2453695.718563299592",
        "mean_anomaly": "40.48053653342161",
        "mean_motion": ".5972215772342568",
        "equinox": "J2000",
        "orbit_class": {
            "orbit_class_type": "APO",
            "orbit_class_description": "Near-Earth asteroid orbits which cross the Earth’s orbit similar to that of 1862 Apollo",
            "orbit_class_range": "a (semi-major axis) > 1.0 AU; q (perihelion) < 1.017 AU"
        }
    },
    "is_sentry_object": false
}